[{"OBJECT_NAME":"STARLINK-2109","OBJECT_ID":"2021-005AR","EPOCH":"2026-03-09T05:01:53.045472","MEAN_MOTION":15.06406237,"ECCENTRICITY":0.00014412,"INCLINATION":53.0555,"RA_OF_ASC_NODE":63.7741,"ARG_OF_PERICENTER":86.6518,"MEAN_ANOMALY":273.4636,"EPHEMERIS_TYPE":0,"CLASSIFICATION_TYPE":"U","NORAD_CAT_ID":47388,"ELEMENT_SET_NO":999,"REV_AT_EPOCH":28296,"BSTAR":6.7896725e-5,"MEAN_MOTION_DOT":7.3e-6,"MEAN_MOTION_DDOT":0},{"OBJECT_NAME":"PEGASUS DEB","OBJECT_ID":"1994-029LA","EPOCH":"2026-03-09T18:29:08.733408","MEAN_MOTION":14.76409113,"ECCENTRICITY":0.01360091,"INCLINATION":82.0422,"RA_OF_ASC_NODE":179.0624,"ARG_OF_PERICENTER":235.64,"MEAN_ANOMALY":242.608,"EPHEMERIS_TYPE":0,"CLASSIFICATION_TYPE":"U","NORAD_CAT_ID":24227,"ELEMENT_SET_NO":999,"REV_AT_EPOCH":58708,"BSTAR":0.0004416374,"MEAN_MOTION_DOT":3.597e-5,"MEAN_MOTION_DDOT":0}]
